ONEWEB-0697             
1 61603U 24188K   26005.10219817  .00000294  00000+0  79287-3 0  9991
2 61603  87.8830  53.5420 0000960 106.7210 253.4023 13.11418754 63073
ONEWEB-0698             
1 61604U 24188L   26005.15645639 -.00000477  00000+0 -13821-2 0  9998
2 61604  87.8829  53.5466 0001074  56.2425 303.8805 13.11416070 63107
ONEWEB-0699             
1 61605U 24188M   26005.11587882 -.00000567  00000+0 -16612-2 0  9991
2 61605  87.8790  68.7702 0001070 103.3383 256.7864 13.10371448 61959
ONEWEB-0700             
1 61606U 24188N   26005.11754403 -.00000593  00000+0 -17339-2 0  9993
2 61606  87.8801  68.6574 0001445 126.1615 233.9646 13.10372166 61948
ONEWEB-0701             
1 61607U 24188P   26005.13414733 -.00000202  00000+0 -61381-3 0  9999
2 61607  87.8792  68.7667 0000898 107.8879 252.2347 13.10375581 61958
ONEWEB-0702             
1 61608U 24188Q   26005.12592750  .00000440  00000+0  12052-2 0  9997
2 61608  87.8813  53.4352 0000896 129.1124 231.0084 13.11417212 63115
ONEWEB-0704             
1 61609U 24188R   26005.12251550 -.00000656  00000+0 -19164-2 0  9990
2 61609  87.8807  68.7373 0001107 132.5522 227.5699 13.10372566 61938
ONEWEB-0705             
1 61610U 24188S   26005.12749953 -.00000582  00000+0 -17047-2 0  9997
2 61610  87.8798  68.7558 0002151 135.0650 225.0652 13.10374658 54101
